{
  "type": "FeatureCollection",
  "features": [
    {
      "type": "Feature",
      "properties": {
        "norad_id": 34765,
        "name": "IRIDIUM 33 DEB",
        "group": "iridium-33-debris",
        "lat": -66.58236392951642,
        "lon": 26.55303808168866,
        "alt_km": 759.3823239099511,
        "timestamp": "2025-12-07T09:35:10.174702+00:00",
        "meta_object_name": "IRIDIUM 33 DEB",
        "meta_object_id": "1997-051LJ",
        "meta_epoch": "2025-12-06T14:30:03.375072",
        "meta_mean_motion": 14.40440942,
        "meta_eccentricity": 0.00148947,
        "meta_inclination": 86.3396,
        "meta_ra_of_asc_node": 35.3938,
        "meta_arg_of_pericenter": 233.6744,
        "meta_mean_anomaly": 258.3156,
        "meta_ephemeris_type": 0,
        "meta_classification_type": "U",
        "meta_norad_cat_id": 34765,
        "meta_element_set_no": 999,
        "meta_rev_at_epoch": 87525,
        "meta_bstar": 0.00076473215,
        "meta_mean_motion_dot": 2.451e-05,
        "meta_mean_motion_ddot": 0,
        "tle_line1": "1 34765U 97051LJ  25340.60420573  .00002451  00000+0  76473-3 0  9999",
        "tle_line2": "2 34765  86.3396  35.3938 0014894 233.6744 258.3156 14.40440942875257"
      },
      "geometry": {
        "type": "Point",
        "coordinates": [
          26.55303808168866,
          -66.58236392951642
        ]
      }
    },
    {
      "type": "Feature",
      "properties": {
        "norad_id": 34833,
        "name": "IRIDIUM 33 DEB",
        "group": "iridium-33-debris",
        "lat": 9.48062233945751,
        "lon": -127.30792421182046,
        "alt_km": 711.1146597809684,
        "timestamp": "2025-12-07T09:35:10.174712+00:00",
        "meta_object_name": "IRIDIUM 33 DEB",
        "meta_object_id": "1997-051MH",
        "meta_epoch": "2025-12-06T11:24:24.044256",
        "meta_mean_motion": 14.52319151,
        "meta_eccentricity": 0.00217012,
        "meta_inclination": 86.3936,
        "meta_ra_of_asc_node": 53.6936,
        "meta_arg_of_pericenter": 117.7437,
        "meta_mean_anomaly": 263.768,
        "meta_ephemeris_type": 0,
        "meta_classification_type": "U",
        "meta_norad_cat_id": 34833,
        "meta_element_set_no": 999,
        "meta_rev_at_epoch": 87624,
        "meta_bstar": 0.001502325,
        "meta_mean_motion_dot": 6.148e-05,
        "meta_mean_motion_ddot": 0,
        "tle_line1": "1 34833U 97051MH  25340.47527829  .00006148  00000+0  15023-2 0  9992",
        "tle_line2": "2 34833  86.3936  53.6936 0021701 117.7437 263.7680 14.52319151876242"
      },
      "geometry": {
        "type": "Point",
        "coordinates": [
          -127.30792421182046,
          9.48062233945751
        ]
      }
    },
    {
      "type": "Feature",
      "properties": {
        "norad_id": 34870,
        "name": "IRIDIUM 33 DEB",
        "group": "iridium-33-debris",
        "lat": 41.39485961955824,
        "lon": -40.2098346115298,
        "alt_km": 648.149293254035,
        "timestamp": "2025-12-07T09:35:10.174724+00:00",
        "meta_object_name": "IRIDIUM 33 DEB",
        "meta_object_id": "1997-051MQ",
        "meta_epoch": "2025-12-06T22:08:41.908992",
        "meta_mean_motion": 14.76249471,
        "meta_eccentricity": 0.0015404,
        "meta_inclination": 86.3105,
        "meta_ra_of_asc_node": 316.7478,
        "meta_arg_of_pericenter": 204.1366,
        "meta_mean_anomaly": 185.6488,
        "meta_ephemeris_type": 0,
        "meta_classification_type": "U",
        "meta_norad_cat_id": 34870,
        "meta_element_set_no": 999,
        "meta_rev_at_epoch": 88825,
        "meta_bstar": 0.0023310251,
        "meta_mean_motion_dot": 0.00016214,
        "meta_mean_motion_ddot": 0,
        "tle_line1": "1 34870U 97051MQ  25340.92270728  .00016214  00000+0  23310-2 0  9999",
        "tle_line2": "2 34870  86.3105 316.7478 0015404 204.1366 185.6488 14.76249471888255"
      },
      "geometry": {
        "type": "Point",
        "coordinates": [
          -40.2098346115298,
          41.39485961955824
        ]
      }
    },
    {
      "type": "Feature",
      "properties": {
        "norad_id": 34896,
        "name": "IRIDIUM 33 DEB",
        "group": "iridium-33-debris",
        "lat": 76.24035059822897,
        "lon": -15.71526819329968,
        "alt_km": 681.6823087698303,
        "timestamp": "2025-12-07T09:35:10.174737+00:00",
        "meta_object_name": "IRIDIUM 33 DEB",
        "meta_object_id": "1997-051MY",
        "meta_epoch": "2025-12-05T17:05:39.506784",
        "meta_mean_motion": 14.66165825,
        "meta_eccentricity": 0.00238087,
        "meta_inclination": 86.3279,
        "meta_ra_of_asc_node": 329.8372,
        "meta_arg_of_pericenter": 240.6117,
        "meta_mean_anomaly": 296.7708,
        "meta_ephemeris_type": 0,
        "meta_classification_type": "U",
        "meta_norad_cat_id": 34896,
        "meta_element_set_no": 999,
        "meta_rev_at_epoch": 87516,
        "meta_bstar": 0.001793551,
        "meta_mean_motion_dot": 9.929e-05,
        "meta_mean_motion_ddot": 0,
        "tle_line1": "1 34896U 97051MY  25339.71226281  .00009929  00000+0  17936-2 0  9999",
        "tle_line2": "2 34896  86.3279 329.8372 0023808 240.6117 296.7708 14.66165825875163"
      },
      "geometry": {
        "type": "Point",
        "coordinates": [
          -15.71526819329968,
          76.24035059822897
        ]
      }
    },
    {
      "type": "Feature",
      "properties": {
        "norad_id": 34926,
        "name": "IRIDIUM 33 DEB",
        "group": "iridium-33-debris",
        "lat": 34.693542700781926,
        "lon": 13.434091941579403,
        "alt_km": 704.0446594921568,
        "timestamp": "2025-12-07T09:35:10.174748+00:00",
        "meta_object_name": "IRIDIUM 33 DEB",
        "meta_object_id": "1997-051NF",
        "meta_epoch": "2025-12-06T20:46:22.255104",
        "meta_mean_motion": 14.54012124,
        "meta_eccentricity": 0.00763819,
        "meta_inclination": 86.1315,
        "meta_ra_of_asc_node": 10.9966,
        "meta_arg_of_pericenter": 312.8142,
        "meta_mean_anomaly": 168.3401,
        "meta_ephemeris_type": 0,
        "meta_classification_type": "U",
        "meta_norad_cat_id": 34926,
        "meta_element_set_no": 999,
        "meta_rev_at_epoch": 86371,
        "meta_bstar": 0.0091084702,
        "meta_mean_motion_dot": 0.00040121,
        "meta_mean_motion_ddot": 0,
        "tle_line1": "1 34926U 97051NF  25340.86553536  .00040121  00000+0  91085-2 0  9993",
        "tle_line2": "2 34926  86.1315  10.9966 0076381 312.8142 168.3401 14.54012124863719"
      },
      "geometry": {
        "type": "Point",
        "coordinates": [
          13.434091941579403,
          34.693542700781926
        ]
      }
    },
    {
      "type": "Feature",
      "properties": {
        "norad_id": 34985,
        "name": "IRIDIUM 33 DEB",
        "group": "iridium-33-debris",
        "lat": 33.725950252071286,
        "lon": 61.58668756121226,
        "alt_km": 762.993655353449,
        "timestamp": "2025-12-07T09:35:10.174758+00:00",
        "meta_object_name": "IRIDIUM 33 DEB",
        "meta_object_id": "1997-051NR",
        "meta_epoch": "2025-12-06T11:52:01.102944",
        "meta_mean_motion": 14.41968492,
        "meta_eccentricity": 0.00201435,
        "meta_inclination": 86.3705,
        "meta_ra_of_asc_node": 59.544,
        "meta_arg_of_pericenter": 241.43,
        "meta_mean_anomaly": 137.5894,
        "meta_ephemeris_type": 0,
        "meta_classification_type": "U",
        "meta_norad_cat_id": 34985,
        "meta_element_set_no": 999,
        "meta_rev_at_epoch": 87085,
        "meta_bstar": 0.0014027,
        "meta_mean_motion_dot": 4.627e-05,
        "meta_mean_motion_ddot": 0,
        "tle_line1": "1 34985U 97051NR  25340.49445721  .00004627  00000+0  14027-2 0  9995",
        "tle_line2": "2 34985  86.3705  59.5440 0020143 241.4300 137.5894 14.41968492870854"
      },
      "geometry": {
        "type": "Point",
        "coordinates": [
          61.58668756121226,
          33.725950252071286
        ]
      }
    },
    {
      "type": "Feature",
      "properties": {
        "norad_id": 35051,
        "name": "IRIDIUM 33 DEB",
        "group": "iridium-33-debris",
        "lat": -39.394768940973016,
        "lon": -165.78408084374482,
        "alt_km": 743.3724109479253,
        "timestamp": "2025-12-07T09:35:10.174768+00:00",
        "meta_object_name": "IRIDIUM 33 DEB",
        "meta_object_id": "1997-051NX",
        "meta_epoch": "2025-12-05T08:27:53.565120",
        "meta_mean_motion": 14.47546386,
        "meta_eccentricity": 0.00106363,
        "meta_inclination": 86.3242,
        "meta_ra_of_asc_node": 12.0813,
        "meta_arg_of_pericenter": 111.2483,
        "meta_mean_anomaly": 248.9857,
        "meta_ephemeris_type": 0,
        "meta_classification_type": "U",
        "meta_norad_cat_id": 35051,
        "meta_element_set_no": 999,
        "meta_rev_at_epoch": 86889,
        "meta_bstar": 0.0012192117,
        "meta_mean_motion_dot": 4.506e-05,
        "meta_mean_motion_ddot": 0,
        "tle_line1": "1 35051U 97051NX  25339.35270330  .00004506  00000+0  12192-2 0  9992",
        "tle_line2": "2 35051  86.3242  12.0813 0010636 111.2483 248.9857 14.47546386868892"
      },
      "geometry": {
        "type": "Point",
        "coordinates": [
          -165.78408084374482,
          -39.394768940973016
        ]
      }
    }
  ]
}